start=new Date('2023-02-10T00:00:00.000Z').valueOf();
sats=[{"EPOCH":"2023-02-09T14:50:26.914848","ARG_OF_PERICENTER":"110.8752","REV_AT_EPOCH":"10520","NORAD_CAT_ID":"48022","EPHEMERIS_TYPE":"0","MEAN_ANOMALY":"249.2353","RCS_SIZE":"LARGE","BSTAR":"0.00186990000000","ELEMENT_SET_NO":"999","TLE_LINE2":"2 48022  53.0549 338.0531 0001082 110.8752 249.2353 15.06408670105205","TIME_SYSTEM":"UTC","MEAN_MOTION_DOT":"0.00027687","COUNTRY_CODE":"US","SEMIMAJOR_AXIS":"6925.322","FILE":"3783241","MEAN_ELEMENT_THEORY":"SGP4","PERIAPSIS":"546.438","CENTER_NAME":"EARTH","OBJECT_ID":"2021-024AX","MEAN_MOTION_DDOT":"0.0000000000000","REF_FRAME":"TEME","MEAN_MOTION":"15.06408670","DECAY_DATE":null,"APOAPSIS":"547.936","TLE_LINE1":"1 48022U 21024AX  23040.61836707  .00027687  00000-0  18699-2 0  9997","ECCENTRICITY":"0.00010820","RA_OF_ASC_NODE":"338.0531","LAUNCH_DATE":"2021-03-24","GP_ID":"224958017","OBJECT_TYPE":"PAYLOAD","CLASSIFICATION_TYPE":"U","OBJECT_NAME":"STARLINK-2298","INCLINATION":"53.0549","PERIOD":"95.592","SITE":"AFETR"},{"NORAD_CAT_ID":"48023","EPHEMERIS_TYPE":"0","REV_AT_EPOCH":"10513","MEAN_ANOMALY":"221.5328","RCS_SIZE":"LARGE","BSTAR":"0.00173090000000","ELEMENT_SET_NO":"999","EPOCH":"2023-02-09T03:25:41.750112","ARG_OF_PERICENTER":"138.5782","CENTER_NAME":"EARTH","PERIAPSIS":"546.114","MEAN_MOTION_DDOT":"0.0000000000000","REF_FRAME":"TEME","OBJECT_ID":"2021-024AY","MEAN_MOTION_DOT":"0.00025594","TIME_SYSTEM":"UTC","TLE_LINE2":"2 48023  53.0535 339.9125 0001590 138.5782 221.5328 15.06399402105133","SEMIMAJOR_AXIS":"6925.350","COUNTRY_CODE":"US","FILE":"3782313","MEAN_ELEMENT_THEORY":"SGP4","ECCENTRICITY":"0.00015900","RA_OF_ASC_NODE":"339.9125","LAUNCH_DATE":"2021-03-24","DECAY_DATE":null,"MEAN_MOTION":"15.06399402","TLE_LINE1":"1 48023U 21024AY  23040.14284433  .00025594  00000-0  17309-2 0  9991","APOAPSIS":"548.317","OBJECT_NAME":"STARLINK-2292","CLASSIFICATION_TYPE":"U","SITE":"AFETR","PERIOD":"95.592","INCLINATION":"53.0535","OBJECT_TYPE":"PAYLOAD","GP_ID":"224910569"},{"TLE_LINE2":"2 48026  53.0553 344.4063 0001469 106.1488 253.9663 15.06399884105020","TIME_SYSTEM":"UTC","MEAN_MOTION_DOT":"0.00005272","COUNTRY_CODE":"US","SEMIMAJOR_AXIS":"6925.349","FILE":"3782313","MEAN_ELEMENT_THEORY":"SGP4","PERIAPSIS":"546.197","CENTER_NAME":"EARTH","OBJECT_ID":"2021-024BB","MEAN_MOTION_DDOT":"0.0000000000000","REF_FRAME":"TEME","EPOCH":"2023-02-09T06:06:54.356256","ARG_OF_PERICENTER":"106.1488","REV_AT_EPOCH":"10502","EPHEMERIS_TYPE":"0","NORAD_CAT_ID":"48026","MEAN_ANOMALY":"253.9663","RCS_SIZE":"LARGE","ELEMENT_SET_NO":"999","BSTAR":"0.00037257000000","GP_ID":"224910320","OBJECT_TYPE":"PAYLOAD","CLASSIFICATION_TYPE":"U","OBJECT_NAME":"STARLINK-2278","INCLINATION":"53.0553","PERIOD":"95.592","SITE":"AFETR","MEAN_MOTION":"15.06399884","DECAY_DATE":null,"APOAPSIS":"548.231","TLE_LINE1":"1 48026U 21024BB  23040.25479579  .00005272  00000-0  37257-3 0  9999","RA_OF_ASC_NODE":"344.4063","ECCENTRICITY":"0.00014690","LAUNCH_DATE":"2021-03-24"},{"OBJECT_TYPE":"PAYLOAD","GP_ID":"224909069","SITE":"AFETR","INCLINATION":"53.0556","PERIOD":"95.592","CLASSIFICATION_TYPE":"U","OBJECT_NAME":"STARLINK-2300","TLE_LINE1":"1 48027U 21024BC  23040.14837664  .00018978  00000-0  12895-2 0  9998","APOAPSIS":"548.071","DECAY_DATE":null,"MEAN_MOTION":"15.06400454","LAUNCH_DATE":"2021-03-24","ECCENTRICITY":"0.00012400","RA_OF_ASC_NODE":"319.8817","FILE":"3782313","MEAN_ELEMENT_THEORY":"SGP4","SEMIMAJOR_AXIS":"6925.347","COUNTRY_CODE":"US","MEAN_MOTION_DOT":"0.00018978","TIME_SYSTEM":"UTC","TLE_LINE2":"2 48027  53.0556 319.8817 0001240 104.5875 255.5252 15.06400454105350","MEAN_MOTION_DDOT":"0.0000000000000","REF_FRAME":"TEME","OBJECT_ID":"2021-024BC","CENTER_NAME":"EARTH","PERIAPSIS":"546.353","ARG_OF_PERICENTER":"104.5875","EPOCH":"2023-02-09T03:33:39.741696","RCS_SIZE":"LARGE","ELEMENT_SET_NO":"999","BSTAR":"0.00128950000000","MEAN_ANOMALY":"255.5252","NORAD_CAT_ID":"48027","EPHEMERIS_TYPE":"0","REV_AT_EPOCH":"10535"},{"BSTAR":"0.00032901000000","RCS_SIZE":"LARGE","ELEMENT_SET_NO":"999","REV_AT_EPOCH":"10615","EPHEMERIS_TYPE":"0","NORAD_CAT_ID":"48028","MEAN_ANOMALY":"266.4651","ARG_OF_PERICENTER":"93.6464","EPOCH":"2023-02-09T22:16:58.866240","OBJECT_ID":"2021-024BD","MEAN_MOTION_DDOT":"0.0000000000000","REF_FRAME":"TEME","PERIAPSIS":"546.433","CENTER_NAME":"EARTH","COUNTRY_CODE":"US","SEMIMAJOR_AXIS":"6925.332","FILE":"3783241","MEAN_ELEMENT_THEORY":"SGP4","TLE_LINE2":"2 48028  53.0522 271.7778 0001103  93.6464 266.4651 15.06405560106152","TIME_SYSTEM":"UTC","MEAN_MOTION_DOT":"0.00004623","LAUNCH_DATE":"2021-03-24","ECCENTRICITY":"0.00011030","RA_OF_ASC_NODE":"271.7778","APOAPSIS":"547.960","TLE_LINE1":"1 48028U 21024BD  23040.92845910  .00004623  00000-0  32901-3 0  9991","MEAN_MOTION":"15.06405560","DECAY_DATE":null,"OBJECT_NAME":"STARLINK-2264","CLASSIFICATION_TYPE":"U","INCLINATION":"53.0522","PERIOD":"95.592","SITE":"AFETR","GP_ID":"224957518","OBJECT_TYPE":"PAYLOAD"},{"MEAN_MOTION":"15.06396772","DECAY_DATE":null,"APOAPSIS":"548.016","TLE_LINE1":"1 48029U 21024BE  23040.91689640  .00051275  00000-0  34366-2 0  9998","RA_OF_ASC_NODE":"336.4304","ECCENTRICITY":"0.00011450","LAUNCH_DATE":"2021-03-24","GP_ID":"224958265","OBJECT_TYPE":"PAYLOAD","CLASSIFICATION_TYPE":"U","OBJECT_NAME":"STARLINK-2299","PERIOD":"95.592","INCLINATION":"53.0557","SITE":"AFETR","EPOCH":"2023-02-09T22:00:19.848960","ARG_OF_PERICENTER":"70.9482","REV_AT_EPOCH":"10525","EPHEMERIS_TYPE":"0","NORAD_CAT_ID":"48029","MEAN_ANOMALY":"289.1631","RCS_SIZE":"LARGE","BSTAR":"0.00343660000000","ELEMENT_SET_NO":"999","TIME_SYSTEM":"UTC","TLE_LINE2":"2 48029  53.0557 336.4304 0001145  70.9482 289.1631 15.06396772105253","MEAN_MOTION_DOT":"0.00051275","COUNTRY_CODE":"US","SEMIMAJOR_AXIS":"6925.358","FILE":"3783241","MEAN_ELEMENT_THEORY":"SGP4","PERIAPSIS":"546.430","CENTER_NAME":"EARTH","OBJECT_ID":"2021-024BE","MEAN_MOTION_DDOT":"0.0000000000000","REF_FRAME":"TEME"},{"TIME_SYSTEM":"UTC","TLE_LINE2":"2 48030  53.0529 344.5901 0001451 120.8690 239.2442 15.06401595105013","MEAN_MOTION_DOT":"0.00020584","COUNTRY_CODE":"US","SEMIMAJOR_AXIS":"6925.344","MEAN_ELEMENT_THEORY":"SGP4","FILE":"3782313","PERIAPSIS":"546.204","CENTER_NAME":"EARTH","OBJECT_ID":"2021-024BF","REF_FRAME":"TEME","MEAN_MOTION_DDOT":"0.0000000000000","EPOCH":"2023-02-09T05:08:32.337024","ARG_OF_PERICENTER":"120.8690","REV_AT_EPOCH":"10501","NORAD_CAT_ID":"48030","EPHEMERIS_TYPE":"0","MEAN_ANOMALY":"239.2442","BSTAR":"0.00139670000000","RCS_SIZE":"LARGE","ELEMENT_SET_NO":"999","GP_ID":"224910820","OBJECT_TYPE":"PAYLOAD","CLASSIFICATION_TYPE":"U","OBJECT_NAME":"STARLINK-2268","INCLINATION":"53.0529","PERIOD":"95.592","SITE":"AFETR","MEAN_MOTION":"15.06401595","DECAY_DATE":null,"APOAPSIS":"548.214","TLE_LINE1":"1 48030U 21024BF  23040.21426316  .00020584  00000-0  13967-2 0  9995","ECCENTRICITY":"0.00014510","RA_OF_ASC_NODE":"344.5901","LAUNCH_DATE":"2021-03-24"},{"PERIOD":"95.592","INCLINATION":"53.0513","SITE":"AFETR","CLASSIFICATION_TYPE":"U","OBJECT_NAME":"STARLINK-2267","GP_ID":"224956773","OBJECT_TYPE":"PAYLOAD","LAUNCH_DATE":"2021-03-24","RA_OF_ASC_NODE":"227.0330","ECCENTRICITY":"0.00013930","APOAPSIS":"548.172","TLE_LINE1":"1 48031U 21024BG  23040.78327827  .00001452  00000-0  11637-3 0  9991","MEAN_MOTION":"15.06402074","DECAY_DATE":null,"OBJECT_ID":"2021-024BG","REF_FRAME":"TEME","MEAN_MOTION_DDOT":"0.0000000000000","PERIAPSIS":"546.243","CENTER_NAME":"EARTH","FILE":"3783241","MEAN_ELEMENT_THEORY":"SGP4","COUNTRY_CODE":"US","SEMIMAJOR_AXIS":"6925.342","TIME_SYSTEM":"UTC","TLE_LINE2":"2 48031  53.0513 227.0330 0001393  89.9670 270.1479 15.06402074106711","MEAN_MOTION_DOT":"0.00001452","RCS_SIZE":"LARGE","ELEMENT_SET_NO":"999","BSTAR":"0.00011637000000","MEAN_ANOMALY":"270.1479","REV_AT_EPOCH":"10671","NORAD_CAT_ID":"48031","EPHEMERIS_TYPE":"0","ARG_OF_PERICENTER":"89.9670","EPOCH":"2023-02-09T18:47:55.242528"},{"MEAN_ANOMALY":"264.7317","NORAD_CAT_ID":"48033","EPHEMERIS_TYPE":"0","REV_AT_EPOCH":"10515","BSTAR":"0.00006727700000","RCS_SIZE":"LARGE","ELEMENT_SET_NO":"999","EPOCH":"2023-02-09T05:48:59.682816","ARG_OF_PERICENTER":"95.3793","CENTER_NAME":"EARTH","PERIAPSIS":"546.457","MEAN_MOTION_DDOT":"0.0000000000000","REF_FRAME":"TEME","OBJECT_ID":"2021-024BJ","MEAN_MOTION_DOT":"0.00000721","TIME_SYSTEM":"UTC","TLE_LINE2":"2 48033  53.0548 339.4635 0001062  95.3793 264.7317 15.06406807105152","FILE":"3782313","MEAN_ELEMENT_THEORY":"SGP4","SEMIMAJOR_AXIS":"6925.328","COUNTRY_CODE":"US","ECCENTRICITY":"0.00010620","RA_OF_ASC_NODE":"339.4635","LAUNCH_DATE":"2021-03-24","DECAY_DATE":null,"MEAN_MOTION":"15.06406807","TLE_LINE1":"1 48033U 21024BJ  23040.24235744  .00000721  00000-0  67277-4 0  9990","APOAPSIS":"547.928","SITE":"AFETR","INCLINATION":"53.0548","PERIOD":"95.592","OBJECT_NAME":"STARLINK-2286","CLASSIFICATION_TYPE":"U","OBJECT_TYPE":"PAYLOAD","GP_ID":"224909819"},{"OBJECT_TYPE":"PAYLOAD","GP_ID":"224957766","SITE":"AFETR","INCLINATION":"53.0532","PERIOD":"95.593","CLASSIFICATION_TYPE":"U","OBJECT_NAME":"STARLINK-2288","DECAY_DATE":null,"MEAN_MOTION":"15.06392624","TLE_LINE1":"1 48034U 21024BK  23040.85792033  .00000703  00000-0  66073-4 0  9990","APOAPSIS":"548.109","ECCENTRICITY":"0.00012600","RA_OF_ASC_NODE":"336.7030","LAUNCH_DATE":"2021-03-24","MEAN_MOTION_DOT":"0.00000703","TLE_LINE2":"2 48034  53.0532 336.7030 0001260  98.3535 261.7597 15.06392624105240","TIME_SYSTEM":"UTC","FILE":"3783241","MEAN_ELEMENT_THEORY":"SGP4","SEMIMAJOR_AXIS":"6925.371","COUNTRY_CODE":"US","CENTER_NAME":"EARTH","PERIAPSIS":"546.364","REF_FRAME":"TEME","MEAN_MOTION_DDOT":"0.0000000000000","OBJECT_ID":"2021-024BK","EPOCH":"2023-02-09T20:35:24.316512","ARG_OF_PERICENTER":"98.3535","MEAN_ANOMALY":"261.7597","NORAD_CAT_ID":"48034","EPHEMERIS_TYPE":"0","REV_AT_EPOCH":"10524","RCS_SIZE":"LARGE","BSTAR":"0.00006607300000","ELEMENT_SET_NO":"999"}];
